{
  "links" : {
    "next" : "https://api.nasa.gov/neo/rest/v1/feed?start_date=2005-01-09&end_date=2005-01-09&detailed=true&api_key=t0TVs3DtDT2H8Oy2Zy8m2eVrNsAVKAexjcZXUckd",
    "prev" : "https://api.nasa.gov/neo/rest/v1/feed?start_date=2005-01-07&end_date=2005-01-07&detailed=true&api_key=t0TVs3DtDT2H8Oy2Zy8m2eVrNsAVKAexjcZXUckd",
    "self" : "https://api.nasa.gov/neo/rest/v1/feed?start_date=2005-01-08&end_date=2005-01-08&detailed=true&api_key=t0TVs3DtDT2H8Oy2Zy8m2eVrNsAVKAexjcZXUckd"
  },
  "element_count" : 3,
  "near_earth_objects" : {
    "2005-01-08" : [ {
      "links" : {
        "self" : "https://api.nasa.gov/neo/rest/v1/neo/3102762?api_key=t0TVs3DtDT2H8Oy2Zy8m2eVrNsAVKAexjcZXUckd"
      },
      "neo_reference_id" : "3102762",
      "name" : "(2002 AA29)",
      "nasa_jpl_url" : "http://ssd.jpl.nasa.gov/sbdb.cgi?sstr=3102762",
      "absolute_magnitude_h" : 24.1,
      "estimated_diameter" : {
        "kilometers" : {
          "estimated_diameter_min" : 0.040230458,
          "estimated_diameter_max" : 0.0899580388
        },
        "meters" : {
          "estimated_diameter_min" : 40.2304579834,
          "estimated_diameter_max" : 89.9580388169
        },
        "miles" : {
          "estimated_diameter_min" : 0.0249980399,
          "estimated_diameter_max" : 0.0558973165
        },
        "feet" : {
          "estimated_diameter_min" : 131.9896957704,
          "estimated_diameter_max" : 295.1379320721
        }
      },
      "is_potentially_hazardous_asteroid" : false,
      "close_approach_data" : [ {
        "close_approach_date" : "2005-01-08",
        "epoch_date_close_approach" : 1105171200000,
        "relative_velocity" : {
          "kilometers_per_second" : "6.3954765552",
          "kilometers_per_hour" : "23023.7155986138",
          "miles_per_hour" : "14306.0415062609"
        },
        "miss_distance" : {
          "astronomical" : "0.0873923746",
          "lunar" : "33.9956321716",
          "kilometers" : "13073713",
          "miles" : "8123629"
        },
        "orbiting_body" : "Earth"
      } ],
      "orbital_data" : {
        "orbit_id" : "21",
        "orbit_determination_date" : "2017-04-06 09:15:33",
        "orbit_uncertainty" : "0",
        "minimum_orbit_intersection" : ".012946",
        "jupiter_tisserand_invariant" : "6.101",
        "epoch_osculation" : "2458000.5",
        "eccentricity" : ".01296125557883429",
        "semi_major_axis" : ".9925462692961411",
        "inclination" : "10.74760091756775",
        "ascending_node_longitude" : "106.3717237836368",
        "orbital_period" : "361.1807278371487",
        "perihelion_distance" : ".9796816234259753",
        "perihelion_argument" : "101.6388260670472",
        "aphelion_distance" : "1.005410915166307",
        "perihelion_time" : "2458172.580482216544",
        "mean_anomaly" : "188.4820622381388",
        "mean_motion" : ".9967309223716914",
        "equinox" : "J2000"
      }
    }, {
      "links" : {
        "self" : "https://api.nasa.gov/neo/rest/v1/neo/3283249?api_key=t0TVs3DtDT2H8Oy2Zy8m2eVrNsAVKAexjcZXUckd"
      },
      "neo_reference_id" : "3283249",
      "name" : "(2005 MO13)",
      "nasa_jpl_url" : "http://ssd.jpl.nasa.gov/sbdb.cgi?sstr=3283249",
      "absolute_magnitude_h" : 20.7,
      "estimated_diameter" : {
        "kilometers" : {
          "estimated_diameter_min" : 0.1925550782,
          "estimated_diameter_max" : 0.4305662442
        },
        "meters" : {
          "estimated_diameter_min" : 192.5550781879,
          "estimated_diameter_max" : 430.566244241
        },
        "miles" : {
          "estimated_diameter_min" : 0.1196481415,
          "estimated_diameter_max" : 0.2675413778
        },
        "feet" : {
          "estimated_diameter_min" : 631.7424027221,
          "estimated_diameter_max" : 1412.6189567557
        }
      },
      "is_potentially_hazardous_asteroid" : true,
      "close_approach_data" : [ {
        "close_approach_date" : "2005-01-08",
        "epoch_date_close_approach" : 1105171200000,
        "relative_velocity" : {
          "kilometers_per_second" : "15.6227551514",
          "kilometers_per_hour" : "56241.9185450576",
          "miles_per_hour" : "34946.5409981776"
        },
        "miss_distance" : {
          "astronomical" : "0.4392021064",
          "lunar" : "170.849609375",
          "kilometers" : "65703700",
          "miles" : "40826388"
        },
        "orbiting_body" : "Earth"
      } ],
      "orbital_data" : {
        "orbit_id" : "43",
        "orbit_determination_date" : "2017-05-31 06:17:11",
        "orbit_uncertainty" : "0",
        "minimum_orbit_intersection" : ".042475",
        "jupiter_tisserand_invariant" : "6.764",
        "epoch_osculation" : "2458000.5",
        "eccentricity" : ".4107624056834786",
        "semi_major_axis" : ".8635151896094255",
        "inclination" : "6.315567925563952",
        "ascending_node_longitude" : "176.6300168461067",
        "orbital_period" : "293.0916183737433",
        "perihelion_distance" : ".5088156129812327",
        "perihelion_argument" : "250.1348340342846",
        "aphelion_distance" : "1.218214766237618",
        "perihelion_time" : "2458050.908781369934",
        "mean_anomaly" : "298.0836565922012",
        "mean_motion" : "1.228284868729807",
        "equinox" : "J2000"
      }
    }, {
      "links" : {
        "self" : "https://api.nasa.gov/neo/rest/v1/neo/2494710?api_key=t0TVs3DtDT2H8Oy2Zy8m2eVrNsAVKAexjcZXUckd"
      },
      "neo_reference_id" : "2494710",
      "name" : "494710 (2005 MO13)",
      "nasa_jpl_url" : "http://ssd.jpl.nasa.gov/sbdb.cgi?sstr=2494710",
      "absolute_magnitude_h" : 20.7,
      "estimated_diameter" : {
        "kilometers" : {
          "estimated_diameter_min" : 0.1925550782,
          "estimated_diameter_max" : 0.4305662442
        },
        "meters" : {
          "estimated_diameter_min" : 192.5550781879,
          "estimated_diameter_max" : 430.566244241
        },
        "miles" : {
          "estimated_diameter_min" : 0.1196481415,
          "estimated_diameter_max" : 0.2675413778
        },
        "feet" : {
          "estimated_diameter_min" : 631.7424027221,
          "estimated_diameter_max" : 1412.6189567557
        }
      },
      "is_potentially_hazardous_asteroid" : true,
      "close_approach_data" : [ {
        "close_approach_date" : "2005-01-08",
        "epoch_date_close_approach" : 1105171200000,
        "relative_velocity" : {
          "kilometers_per_second" : "15.6227433528",
          "kilometers_per_hour" : "56241.8760700912",
          "miles_per_hour" : "34946.5146058853"
        },
        "miss_distance" : {
          "astronomical" : "0.4392019232",
          "lunar" : "170.8495483398",
          "kilometers" : "65703672",
          "miles" : "40826368"
        },
        "orbiting_body" : "Earth"
      } ],
      "orbital_data" : {
        "orbit_id" : "47",
        "orbit_determination_date" : "2017-09-13 06:20:17",
        "orbit_uncertainty" : "0",
        "minimum_orbit_intersection" : ".042475",
        "jupiter_tisserand_invariant" : "6.764",
        "epoch_osculation" : "2458000.5",
        "eccentricity" : ".4107622564394956",
        "semi_major_axis" : ".8635151883324264",
        "inclination" : "6.315565367377403",
        "ascending_node_longitude" : "176.6300049693861",
        "orbital_period" : "293.0916177235907",
        "perihelion_distance" : ".5088157411032229",
        "perihelion_argument" : "250.1348482242269",
        "aphelion_distance" : "1.21821463556163",
        "perihelion_time" : "2458050.908783045151",
        "mean_anomaly" : "298.083654397211",
        "mean_motion" : "1.228284871454459",
        "equinox" : "J2000"
      }
    } ]
  }
}